IRIDE FM7               
1 66701U 25276AM  25360.91857971  .00005133  00000+0  25982-3 0  9995
2 66701  97.4415  72.4340 0003156 235.8329 124.2606 15.17442554  4271
IRIDE FM8               
1 66702U 25276AN  25360.91839353  .00010737  00000+0  53932-3 0  9992
2 66702  97.4392  72.4254 0002891 243.5539 116.5399 15.17452418  4277
PELICAN-6               
1 66703U 25276AP  25360.91730997  .00005630  00000+0  28532-3 0  9991
2 66703  97.4401  72.4292 0001216 210.7440 149.3722 15.17363184  4273
FLOCK 4H-1              
1 66704U 25276AQ  25360.91668981 -.00026287  00000+0 -12894-2 0  9991
2 66704  97.4373  72.4469 0002318 159.1506 264.6464 15.18158542  2432
FLOCK 4H-2              
1 66705U 25276AR  25360.90442597  .00015885  00000+0  77874-3 0  9994
2 66705  97.4369  72.4352 0002013 150.6229 209.5118 15.18210571  4278
FLOCK 4H-3              
1 66706U 25276AS  25360.91617727  .00006338  00000+0  31923-3 0  9993
2 66706  97.4438  72.4465 0003086 227.3976 132.6997 15.17526098  4277
FLOCK 4H-4              
1 66707U 25276AT  25360.85487034  .00011233  00000+0  56708-3 0  9991
2 66707  97.4422  72.3691 0003670 233.2864 126.8033 15.17261830  4267
FLOCK 4H-5              
1 66708U 25276AU  25360.90316981  .00008178  00000+0  40283-3 0  9995
2 66708  97.4376  72.4408 0001309 126.3621 233.7734 15.18217748  4270
FLOCK 4H-6              
1 66709U 25276AV  25360.90749930  .00007948  00000+0  39445-3 0  9992
2 66709  97.4424  72.4559 0003007 191.3971 168.7196 15.17962058  4278
FLOCK 4H-7              
1 66710U 25276AW  25360.91599777  .00006561  00000+0  33027-3 0  9997
2 66710  97.4383  72.4219 0001033 259.7297 100.3820 15.17536478  4273
FLOCK 4H-8              
1 66711U 25276AX  25360.91668981 -.00023583  00000+0 -11762-2 0  9998
2 66711  97.4423  72.4452 0002357 243.2252 119.3944 15.17552161  2280
FLOCK 4H-9              
1 66712U 25276AY  25360.90799609 -.00983324  00000+0 -55235-1 0  9990
2 66712  97.4414  72.4527 0006176 238.0304 122.0329 15.16209251  4274
