CCSDS_OMM_VERS = 2.0
CREATION_DATE  = 
ORIGINATOR     = 

OBJECT_NAME    = IRIDE FM7
OBJECT_ID      = 2025-276AM
CENTER_NAME    = EARTH
REF_FRAME      = TEME
TIME_SYSTEM    = UTC
MEAN_ELEMENT_THEORY = SGP/SGP4

EPOCH          = 2025-12-26T22:02:45.286944
MEAN_MOTION    = 15.17442554
ECCENTRICITY   = .00031563
INCLINATION    = 97.4415
RA_OF_ASC_NODE = 72.4340
ARG_OF_PERICENTER = 235.8329
MEAN_ANOMALY   = 124.2606

EPHEMERIS_TYPE = 0
CLASSIFICATION_TYPE = U
NORAD_CAT_ID   = 66701
ELEMENT_SET_NO = 999
REV_AT_EPOCH   = 427
BSTAR          = .25982398E-3
MEAN_MOTION_DOT = .5133E-4
MEAN_MOTION_DDOT = 0

CCSDS_OMM_VERS = 2.0
CREATION_DATE  = 
ORIGINATOR     = 

OBJECT_NAME    = IRIDE FM8
OBJECT_ID      = 2025-276AN
CENTER_NAME    = EARTH
REF_FRAME      = TEME
TIME_SYSTEM    = UTC
MEAN_ELEMENT_THEORY = SGP/SGP4

EPOCH          = 2025-12-26T22:02:29.200992
MEAN_MOTION    = 15.17452418
ECCENTRICITY   = .0002891
INCLINATION    = 97.4392
RA_OF_ASC_NODE = 72.4254
ARG_OF_PERICENTER = 243.5539
MEAN_ANOMALY   = 116.5399

EPHEMERIS_TYPE = 0
CLASSIFICATION_TYPE = U
NORAD_CAT_ID   = 66702
ELEMENT_SET_NO = 999
REV_AT_EPOCH   = 427
BSTAR          = .53931694E-3
MEAN_MOTION_DOT = .10737E-3
MEAN_MOTION_DDOT = 0

CCSDS_OMM_VERS = 2.0
CREATION_DATE  = 
ORIGINATOR     = 

OBJECT_NAME    = PELICAN-6
OBJECT_ID      = 2025-276AP
CENTER_NAME    = EARTH
REF_FRAME      = TEME
TIME_SYSTEM    = UTC
MEAN_ELEMENT_THEORY = SGP/SGP4

EPOCH          = 2025-12-26T22:00:55.581408
MEAN_MOTION    = 15.17363184
ECCENTRICITY   = .00012169
INCLINATION    = 97.4401
RA_OF_ASC_NODE = 72.4292
ARG_OF_PERICENTER = 210.7440
MEAN_ANOMALY   = 149.3722

EPHEMERIS_TYPE = 0
CLASSIFICATION_TYPE = U
NORAD_CAT_ID   = 66703
ELEMENT_SET_NO = 999
REV_AT_EPOCH   = 427
BSTAR          = .28531925E-3
MEAN_MOTION_DOT = .563E-4
MEAN_MOTION_DDOT = 0

CCSDS_OMM_VERS = 2.0
CREATION_DATE  = 
ORIGINATOR     = 

OBJECT_NAME    = FLOCK 4H-1
OBJECT_ID      = 2025-276AQ
CENTER_NAME    = EARTH
REF_FRAME      = TEME
TIME_SYSTEM    = UTC
MEAN_ELEMENT_THEORY = SGP/SGP4

EPOCH          = 2025-12-26T22:00:01.999584
MEAN_MOTION    = 15.18158542
ECCENTRICITY   = .0002318
INCLINATION    = 97.4373
RA_OF_ASC_NODE = 72.4469
ARG_OF_PERICENTER = 159.1506
MEAN_ANOMALY   = 264.6464

EPHEMERIS_TYPE = 0
CLASSIFICATION_TYPE = U
NORAD_CAT_ID   = 66704
ELEMENT_SET_NO = 999
REV_AT_EPOCH   = 243
BSTAR          = -.1289369E-2
MEAN_MOTION_DOT = -.26287E-3
MEAN_MOTION_DDOT = 0

CCSDS_OMM_VERS = 2.0
CREATION_DATE  = 
ORIGINATOR     = 

OBJECT_NAME    = FLOCK 4H-2
OBJECT_ID      = 2025-276AR
CENTER_NAME    = EARTH
REF_FRAME      = TEME
TIME_SYSTEM    = UTC
MEAN_ELEMENT_THEORY = SGP/SGP4

EPOCH          = 2025-12-26T21:42:22.403808
MEAN_MOTION    = 15.18210571
ECCENTRICITY   = .00020135
INCLINATION    = 97.4369
RA_OF_ASC_NODE = 72.4352
ARG_OF_PERICENTER = 150.6229
MEAN_ANOMALY   = 209.5118

EPHEMERIS_TYPE = 0
CLASSIFICATION_TYPE = U
NORAD_CAT_ID   = 66705
ELEMENT_SET_NO = 999
REV_AT_EPOCH   = 427
BSTAR          = .77873621E-3
MEAN_MOTION_DOT = .15885E-3
MEAN_MOTION_DDOT = 0

CCSDS_OMM_VERS = 2.0
CREATION_DATE  = 
ORIGINATOR     = 

OBJECT_NAME    = FLOCK 4H-3
OBJECT_ID      = 2025-276AS
CENTER_NAME    = EARTH
REF_FRAME      = TEME
TIME_SYSTEM    = UTC
MEAN_ELEMENT_THEORY = SGP/SGP4

EPOCH          = 2025-12-26T21:59:17.716128
MEAN_MOTION    = 15.17526098
ECCENTRICITY   = .00030867
INCLINATION    = 97.4438
RA_OF_ASC_NODE = 72.4465
ARG_OF_PERICENTER = 227.3976
MEAN_ANOMALY   = 132.6997

EPHEMERIS_TYPE = 0
CLASSIFICATION_TYPE = U
NORAD_CAT_ID   = 66706
ELEMENT_SET_NO = 999
REV_AT_EPOCH   = 427
BSTAR          = .31922844E-3
MEAN_MOTION_DOT = .6338E-4
MEAN_MOTION_DDOT = 0

CCSDS_OMM_VERS = 2.0
CREATION_DATE  = 
ORIGINATOR     = 

OBJECT_NAME    = FLOCK 4H-4
OBJECT_ID      = 2025-276AT
CENTER_NAME    = EARTH
REF_FRAME      = TEME
TIME_SYSTEM    = UTC
MEAN_ELEMENT_THEORY = SGP/SGP4

EPOCH          = 2025-12-26T20:31:00.797376
MEAN_MOTION    = 15.17261830
ECCENTRICITY   = .00036709
INCLINATION    = 97.4422
RA_OF_ASC_NODE = 72.3691
ARG_OF_PERICENTER = 233.2864
MEAN_ANOMALY   = 126.8033

EPHEMERIS_TYPE = 0
CLASSIFICATION_TYPE = U
NORAD_CAT_ID   = 66707
ELEMENT_SET_NO = 999
REV_AT_EPOCH   = 426
BSTAR          = .56708126E-3
MEAN_MOTION_DOT = .11233E-3
MEAN_MOTION_DDOT = 0

CCSDS_OMM_VERS = 2.0
CREATION_DATE  = 
ORIGINATOR     = 

OBJECT_NAME    = FLOCK 4H-5
OBJECT_ID      = 2025-276AU
CENTER_NAME    = EARTH
REF_FRAME      = TEME
TIME_SYSTEM    = UTC
MEAN_ELEMENT_THEORY = SGP/SGP4

EPOCH          = 2025-12-26T21:40:33.871584
MEAN_MOTION    = 15.18217748
ECCENTRICITY   = .00013093
INCLINATION    = 97.4376
RA_OF_ASC_NODE = 72.4408
ARG_OF_PERICENTER = 126.3621
MEAN_ANOMALY   = 233.7734

EPHEMERIS_TYPE = 0
CLASSIFICATION_TYPE = U
NORAD_CAT_ID   = 66708
ELEMENT_SET_NO = 999
REV_AT_EPOCH   = 427
BSTAR          = .40282769E-3
MEAN_MOTION_DOT = .8178E-4
MEAN_MOTION_DDOT = 0

CCSDS_OMM_VERS = 2.0
CREATION_DATE  = 
ORIGINATOR     = 

OBJECT_NAME    = FLOCK 4H-6
OBJECT_ID      = 2025-276AV
CENTER_NAME    = EARTH
REF_FRAME      = TEME
TIME_SYSTEM    = UTC
MEAN_ELEMENT_THEORY = SGP/SGP4

EPOCH          = 2025-12-26T21:46:47.939520
MEAN_MOTION    = 15.17962058
ECCENTRICITY   = .00030073
INCLINATION    = 97.4424
RA_OF_ASC_NODE = 72.4559
ARG_OF_PERICENTER = 191.3971
MEAN_ANOMALY   = 168.7196

EPHEMERIS_TYPE = 0
CLASSIFICATION_TYPE = U
NORAD_CAT_ID   = 66709
ELEMENT_SET_NO = 999
REV_AT_EPOCH   = 427
BSTAR          = .39444735E-3
MEAN_MOTION_DOT = .7948E-4
MEAN_MOTION_DDOT = 0

CCSDS_OMM_VERS = 2.0
CREATION_DATE  = 
ORIGINATOR     = 

OBJECT_NAME    = FLOCK 4H-7
OBJECT_ID      = 2025-276AW
CENTER_NAME    = EARTH
REF_FRAME      = TEME
TIME_SYSTEM    = UTC
MEAN_ELEMENT_THEORY = SGP/SGP4

EPOCH          = 2025-12-26T21:59:02.207328
MEAN_MOTION    = 15.17536478
ECCENTRICITY   = .00010332
INCLINATION    = 97.4383
RA_OF_ASC_NODE = 72.4219
ARG_OF_PERICENTER = 259.7297
MEAN_ANOMALY   = 100.3820

EPHEMERIS_TYPE = 0
CLASSIFICATION_TYPE = U
NORAD_CAT_ID   = 66710
ELEMENT_SET_NO = 999
REV_AT_EPOCH   = 427
BSTAR          = .33026558E-3
MEAN_MOTION_DOT = .6561E-4
MEAN_MOTION_DDOT = 0

CCSDS_OMM_VERS = 2.0
CREATION_DATE  = 
ORIGINATOR     = 

OBJECT_NAME    = FLOCK 4H-8
OBJECT_ID      = 2025-276AX
CENTER_NAME    = EARTH
REF_FRAME      = TEME
TIME_SYSTEM    = UTC
MEAN_ELEMENT_THEORY = SGP/SGP4

EPOCH          = 2025-12-26T22:00:01.999584
MEAN_MOTION    = 15.17552161
ECCENTRICITY   = .00023572
INCLINATION    = 97.4423
RA_OF_ASC_NODE = 72.4452
ARG_OF_PERICENTER = 243.2252
MEAN_ANOMALY   = 119.3944

EPHEMERIS_TYPE = 0
CLASSIFICATION_TYPE = U
NORAD_CAT_ID   = 66711
ELEMENT_SET_NO = 999
REV_AT_EPOCH   = 228
BSTAR          = -.11762356E-2
MEAN_MOTION_DOT = -.23583E-3
MEAN_MOTION_DDOT = 0

CCSDS_OMM_VERS = 2.0
CREATION_DATE  = 
ORIGINATOR     = 

OBJECT_NAME    = FLOCK 4H-9
OBJECT_ID      = 2025-276AY
CENTER_NAME    = EARTH
REF_FRAME      = TEME
TIME_SYSTEM    = UTC
MEAN_ELEMENT_THEORY = SGP/SGP4

EPOCH          = 2025-12-26T21:47:30.862176
MEAN_MOTION    = 15.16209251
ECCENTRICITY   = .00061764
INCLINATION    = 97.4414
RA_OF_ASC_NODE = 72.4527
ARG_OF_PERICENTER = 238.0304
MEAN_ANOMALY   = 122.0329

EPHEMERIS_TYPE = 0
CLASSIFICATION_TYPE = U
NORAD_CAT_ID   = 66712
ELEMENT_SET_NO = 999
REV_AT_EPOCH   = 427
BSTAR          = -.55234905E-1
MEAN_MOTION_DOT = -.983324E-2
MEAN_MOTION_DDOT = 0

